CCSDS_OMM_VERS = 2.0
CREATION_DATE  = 
ORIGINATOR     = 

OBJECT_NAME    = STARLINK-36094
OBJECT_ID      = 2025-281D
CENTER_NAME    = EARTH
REF_FRAME      = TEME
TIME_SYSTEM    = UTC
MEAN_ELEMENT_THEORY = SGP/SGP4

EPOCH          = 2025-12-30T16:00:03.000096
MEAN_MOTION    = 15.50499558
ECCENTRICITY   = .00015396
INCLINATION    = 43.0006
RA_OF_ASC_NODE = 14.8095
ARG_OF_PERICENTER = 274.8584
MEAN_ANOMALY   = 18.5640

EPHEMERIS_TYPE = 0
CLASSIFICATION_TYPE = U
NORAD_CAT_ID   = 66851
ELEMENT_SET_NO = 999
REV_AT_EPOCH   = 426
BSTAR          = .2249097E-2
MEAN_MOTION_DOT = .133497E-2
MEAN_MOTION_DDOT = 0

CCSDS_OMM_VERS = 2.0
CREATION_DATE  = 
ORIGINATOR     = 

OBJECT_NAME    = STARLINK-35992
OBJECT_ID      = 2025-281E
CENTER_NAME    = EARTH
REF_FRAME      = TEME
TIME_SYSTEM    = UTC
MEAN_ELEMENT_THEORY = SGP/SGP4

EPOCH          = 2025-12-30T10:05:41.818560
MEAN_MOTION    = 15.50602299
ECCENTRICITY   = .00011517
INCLINATION    = 43.0011
RA_OF_ASC_NODE = 16.2453
ARG_OF_PERICENTER = 328.9819
MEAN_ANOMALY   = 31.0973

EPHEMERIS_TYPE = 0
CLASSIFICATION_TYPE = U
NORAD_CAT_ID   = 66852
ELEMENT_SET_NO = 999
REV_AT_EPOCH   = 557
BSTAR          = .18302062E-2
MEAN_MOTION_DOT = .108619E-2
MEAN_MOTION_DDOT = 0

CCSDS_OMM_VERS = 2.0
CREATION_DATE  = 
ORIGINATOR     = 

OBJECT_NAME    = STARLINK-35986
OBJECT_ID      = 2025-281F
CENTER_NAME    = EARTH
REF_FRAME      = TEME
TIME_SYSTEM    = UTC
MEAN_ELEMENT_THEORY = SGP/SGP4

EPOCH          = 2025-12-30T08:32:26.193408
MEAN_MOTION    = 15.50586459
ECCENTRICITY   = .00013156
INCLINATION    = 43.0014
RA_OF_ASC_NODE = 16.6182
ARG_OF_PERICENTER = 284.2238
MEAN_ANOMALY   = 75.8476

EPHEMERIS_TYPE = 0
CLASSIFICATION_TYPE = U
NORAD_CAT_ID   = 66853
ELEMENT_SET_NO = 999
REV_AT_EPOCH   = 556
BSTAR          = .2187006E-2
MEAN_MOTION_DOT = .130148E-2
MEAN_MOTION_DDOT = 0

CCSDS_OMM_VERS = 2.0
CREATION_DATE  = 
ORIGINATOR     = 

OBJECT_NAME    = STARLINK-36087
OBJECT_ID      = 2025-281G
CENTER_NAME    = EARTH
REF_FRAME      = TEME
TIME_SYSTEM    = UTC
MEAN_ELEMENT_THEORY = SGP/SGP4

EPOCH          = 2025-12-31T01:32:16.543968
MEAN_MOTION    = 15.50655595
ECCENTRICITY   = .0000767
INCLINATION    = 42.9977
RA_OF_ASC_NODE = 12.4711
ARG_OF_PERICENTER = 207.9384
MEAN_ANOMALY   = 152.1435

EPHEMERIS_TYPE = 0
CLASSIFICATION_TYPE = U
NORAD_CAT_ID   = 66854
ELEMENT_SET_NO = 999
REV_AT_EPOCH   = 567
BSTAR          = .19309E-2
MEAN_MOTION_DOT = .114922E-2
MEAN_MOTION_DDOT = 0

CCSDS_OMM_VERS = 2.0
CREATION_DATE  = 
ORIGINATOR     = 

OBJECT_NAME    = STARLINK-36090
OBJECT_ID      = 2025-281H
CENTER_NAME    = EARTH
REF_FRAME      = TEME
TIME_SYSTEM    = UTC
MEAN_ELEMENT_THEORY = SGP/SGP4

EPOCH          = 2025-12-30T10:04:12.720288
MEAN_MOTION    = 15.50598839
ECCENTRICITY   = .00003486
INCLINATION    = 43.0006
RA_OF_ASC_NODE = 16.2358
ARG_OF_PERICENTER = 291.2482
MEAN_ANOMALY   = 68.8341

EPHEMERIS_TYPE = 0
CLASSIFICATION_TYPE = U
NORAD_CAT_ID   = 66855
ELEMENT_SET_NO = 999
REV_AT_EPOCH   = 557
BSTAR          = .18290532E-2
MEAN_MOTION_DOT = .108536E-2
MEAN_MOTION_DDOT = 0

CCSDS_OMM_VERS = 2.0
CREATION_DATE  = 
ORIGINATOR     = 

OBJECT_NAME    = STARLINK-36072
OBJECT_ID      = 2025-281J
CENTER_NAME    = EARTH
REF_FRAME      = TEME
TIME_SYSTEM    = UTC
MEAN_ELEMENT_THEORY = SGP/SGP4

EPOCH          = 2025-12-30T10:03:42.693696
MEAN_MOTION    = 15.50603183
ECCENTRICITY   = .00019091
INCLINATION    = 43.0013
RA_OF_ASC_NODE = 16.2324
ARG_OF_PERICENTER = 282.7354
MEAN_ANOMALY   = 77.3293

EPHEMERIS_TYPE = 0
CLASSIFICATION_TYPE = U
NORAD_CAT_ID   = 66856
ELEMENT_SET_NO = 999
REV_AT_EPOCH   = 557
BSTAR          = .19043668E-2
MEAN_MOTION_DOT = .113105E-2
MEAN_MOTION_DDOT = 0

CCSDS_OMM_VERS = 2.0
CREATION_DATE  = 
ORIGINATOR     = 

OBJECT_NAME    = STARLINK-36083
OBJECT_ID      = 2025-281K
CENTER_NAME    = EARTH
REF_FRAME      = TEME
TIME_SYSTEM    = UTC
MEAN_ELEMENT_THEORY = SGP/SGP4

EPOCH          = 2025-12-30T10:03:13.093920
MEAN_MOTION    = 15.50606977
ECCENTRICITY   = .00021351
INCLINATION    = 43.0023
RA_OF_ASC_NODE = 16.2298
ARG_OF_PERICENTER = 281.5579
MEAN_ANOMALY   = 78.5041

EPHEMERIS_TYPE = 0
CLASSIFICATION_TYPE = U
NORAD_CAT_ID   = 66857
ELEMENT_SET_NO = 999
REV_AT_EPOCH   = 557
BSTAR          = .1886739E-2
MEAN_MOTION_DOT = .112056E-2
MEAN_MOTION_DDOT = 0

CCSDS_OMM_VERS = 2.0
CREATION_DATE  = 
ORIGINATOR     = 

OBJECT_NAME    = STARLINK-35118
OBJECT_ID      = 2025-281L
CENTER_NAME    = EARTH
REF_FRAME      = TEME
TIME_SYSTEM    = UTC
MEAN_ELEMENT_THEORY = SGP/SGP4

EPOCH          = 2025-12-30T10:02:43.381824
MEAN_MOTION    = 15.50615586
ECCENTRICITY   = .0002209
INCLINATION    = 43.0022
RA_OF_ASC_NODE = 16.2247
ARG_OF_PERICENTER = 278.9026
MEAN_ANOMALY   = 81.1584

EPHEMERIS_TYPE = 0
CLASSIFICATION_TYPE = U
NORAD_CAT_ID   = 66858
ELEMENT_SET_NO = 999
REV_AT_EPOCH   = 557
BSTAR          = .20635494E-2
MEAN_MOTION_DOT = .122797E-2
MEAN_MOTION_DDOT = 0

CCSDS_OMM_VERS = 2.0
CREATION_DATE  = 
ORIGINATOR     = 

OBJECT_NAME    = STARLINK-35646
OBJECT_ID      = 2025-281M
CENTER_NAME    = EARTH
REF_FRAME      = TEME
TIME_SYSTEM    = UTC
MEAN_ELEMENT_THEORY = SGP/SGP4

EPOCH          = 2025-12-30T10:02:13.793280
MEAN_MOTION    = 15.50608178
ECCENTRICITY   = .00022498
INCLINATION    = 43.0018
RA_OF_ASC_NODE = 16.2247
ARG_OF_PERICENTER = 281.8895
MEAN_ANOMALY   = 78.1713

EPHEMERIS_TYPE = 0
CLASSIFICATION_TYPE = U
NORAD_CAT_ID   = 66859
ELEMENT_SET_NO = 999
REV_AT_EPOCH   = 557
BSTAR          = .18648945E-2
MEAN_MOTION_DOT = .110742E-2
MEAN_MOTION_DDOT = 0

CCSDS_OMM_VERS = 2.0
CREATION_DATE  = 
ORIGINATOR     = 

OBJECT_NAME    = STARLINK-35987
OBJECT_ID      = 2025-281N
CENTER_NAME    = EARTH
REF_FRAME      = TEME
TIME_SYSTEM    = UTC
MEAN_ELEMENT_THEORY = SGP/SGP4

EPOCH          = 2025-12-31T01:27:20.147904
MEAN_MOTION    = 15.50624867
ECCENTRICITY   = .0000383
INCLINATION    = 42.9966
RA_OF_ASC_NODE = 12.4433
ARG_OF_PERICENTER = 199.8571
MEAN_ANOMALY   = 160.2274

EPHEMERIS_TYPE = 0
CLASSIFICATION_TYPE = U
NORAD_CAT_ID   = 66860
ELEMENT_SET_NO = 999
REV_AT_EPOCH   = 567
BSTAR          = .19179E-2
MEAN_MOTION_DOT = .114014E-2
MEAN_MOTION_DDOT = 0

CCSDS_OMM_VERS = 2.0
CREATION_DATE  = 
ORIGINATOR     = 

OBJECT_NAME    = STARLINK-35991
OBJECT_ID      = 2025-281P
CENTER_NAME    = EARTH
REF_FRAME      = TEME
TIME_SYSTEM    = UTC
MEAN_ELEMENT_THEORY = SGP/SGP4

EPOCH          = 2025-12-30T14:00:01.999008
MEAN_MOTION    = 15.50642872
ECCENTRICITY   = .000119
INCLINATION    = 43.0005
RA_OF_ASC_NODE = 15.2494
ARG_OF_PERICENTER = 270.7438
MEAN_ANOMALY   = 296.0618

EPHEMERIS_TYPE = 0
CLASSIFICATION_TYPE = U
NORAD_CAT_ID   = 66861
ELEMENT_SET_NO = 999
REV_AT_EPOCH   = 425
BSTAR          = -.16471E-2
MEAN_MOTION_DOT = -.96008E-3
MEAN_MOTION_DDOT = 0

CCSDS_OMM_VERS = 2.0
CREATION_DATE  = 
ORIGINATOR     = 

OBJECT_NAME    = STARLINK-35974
OBJECT_ID      = 2025-281Q
CENTER_NAME    = EARTH
REF_FRAME      = TEME
TIME_SYSTEM    = UTC
MEAN_ELEMENT_THEORY = SGP/SGP4

EPOCH          = 2025-12-31T01:29:18.795840
MEAN_MOTION    = 15.50693245
ECCENTRICITY   = .0001669
INCLINATION    = 42.9997
RA_OF_ASC_NODE = 12.4547
ARG_OF_PERICENTER = 273.9780
MEAN_ANOMALY   = 86.0889

EPHEMERIS_TYPE = 0
CLASSIFICATION_TYPE = U
NORAD_CAT_ID   = 66862
ELEMENT_SET_NO = 999
REV_AT_EPOCH   = 567
BSTAR          = .21303E-2
MEAN_MOTION_DOT = .127204E-2
MEAN_MOTION_DDOT = 0

